ONEWEB-0629             
1 55170U 23004AG  26160.29206358 -.00000001  00000+0 -36960-4 0  9997
2 55170  87.9135   7.4417 0001994  78.3255 281.8100 13.17651023166540
ONEWEB-0631             
1 55171U 23004AH  26160.21031972  .00000077  00000+0  16284-3 0  9995
2 55171  87.9167 337.0231 0002105 104.3490 255.7876 13.18684515168622
ONEWEB-0709             
1 55172U 23004AJ  26160.11687126 -.00000535  00000+0 -15441-2 0  9997
2 55172  87.8892  22.6862 0001443 112.6542 247.4739 13.11417704164818
ONEWEB-0710             
1 55173U 23004AK  26160.07861036  .00000040  00000+0  70331-4 0  9997
2 55173  87.9136   7.4793 0002016  87.8447 272.2915 13.17648687166512
ONEWEB-0711             
1 55174U 23004AL  26160.08807032  .00000030  00000+0  47761-4 0  9995
2 55174  87.8894  22.6787 0002551  86.6644 273.4776 13.11416121164779
ONEWEB-0713             
1 55175U 23004AM  26160.10670273 -.00000648  00000+0 -18630-2 0  9992
2 55175  87.8896  22.6768 0002212  86.1261 274.0120 13.11416533164761
ONEWEB-0715             
1 55176U 23004AN  26160.10161762 -.00000487  00000+0 -14090-2 0  9998
2 55176  87.8894  22.6784 0001787 106.7964 253.3361 13.11417192164807
ONEWEB-0716             
1 55177U 23004AP  26160.07186030  .00000027  00000+0  36619-4 0  9991
2 55177  87.9139   7.4832 0001669  80.6537 279.4783 13.17648975166519
ONEWEB-0717             
1 55178U 23004AQ  26160.28279110 -.00000001  00000+0 -34833-4 0  9997
2 55178  87.9148   7.4280 0002389  92.9063 267.2342 13.17648113166595
ONEWEB-0719             
1 55179U 23004AR  26160.29292340  .00000027  00000+0  37402-4 0  9990
2 55179  87.9145   7.4066 0001825  80.9028 279.2310 13.17648234166544
ONEWEB-0530             
1 55796U 23029A   26160.28698440  .00000029  00000+0  40177-4 0  9997
2 55796  87.9180 276.0442 0002366  95.0966 265.0438 13.20771077160105
ONEWEB-0534             
1 55797U 23029B   26160.27519487  .00000071  00000+0  14207-3 0  9991
2 55797  87.9181 276.0472 0001832  99.2833 260.8507 13.20771401160107
ONEWEB-0556             
1 55798U 23029C   26160.28193800  .00000102  00000+0  21946-3 0  9993
2 55798  87.9179 276.0455 0001892  74.6642 285.4700 13.20773058160105
ONEWEB-0562             
1 55799U 23029D   26160.26845508  .00000067  00000+0  13361-3 0  9993
2 55799  87.9179 276.0291 0002500  83.1682 276.9736 13.20770398160108
ONEWEB-0563             
1 55800U 23029E   26160.03614821  .00000059  00000+0  11237-3 0  9994
2 55800  87.9177 276.1059 0001707 100.1820 259.9506 13.20771851160060
ONEWEB-0564             
1 55801U 23029F   26159.87789703  .00000021  00000+0  19298-4 0  9992
2 55801  87.9180 276.1108 0002237  92.5976 267.5413 13.20770098160058
